{
  "norad_id": 60375,
  "name": "STARLINK-32281",
  "history": [
    {
      "epoch": "2026-03-28T15:39:10.361664Z",
      "apogee_km": 475.8305636759824,
      "perigee_km": 474.64767095813386,
      "latitude_deg": -5.758328928966149e-06,
      "longitude_deg": 160.45964541321163,
      "height_km": 475.75568172438483,
      "semi_major_axis_km": 6853.376117317058,
      "eccentricity": 8.63e-05,
      "inclination_deg": 53.1601,
      "raan_deg": 221.3224,
      "arg_perigee_deg": 49.7257,
      "mean_anomaly_deg": 310.3819,
      "mean_motion_rev_day": 15.30191946
    }
  ]
}